start=new Date('2022-11-15T00:00:00.000Z').valueOf();
sats=[{"MEAN_ANOMALY":"330.4052","TLE_LINE1":"1 51758U 22016AW  22318.78916862  .00004085  00000-0  27463-3 0  9992","EPOCH":"2022-11-14T18:56:24.168768","MEAN_MOTION_DDOT":"0.0000000000000","RCS_SIZE":"LARGE","MEAN_ELEMENT_THEORY":"SGP4","LAUNCH_DATE":"2022-02-21","RA_OF_ASC_NODE":"345.0688","SITE":"AFETR","OBJECT_ID":"2022-016AW","SEMIMAJOR_AXIS":"6917.898","FILE":"3656203","INCLINATION":"53.2189","OBJECT_NAME":"STARLINK-3458","ELEMENT_SET_NO":"999","CENTER_NAME":"EARTH","ECCENTRICITY":"0.00025660","REV_AT_EPOCH":"4204","ARG_OF_PERICENTER":"29.7085","GP_ID":"217793215","PERIOD":"95.438","PERIAPSIS":"537.988","APOAPSIS":"541.538","MEAN_MOTION_DOT":"0.00004085","CLASSIFICATION_TYPE":"U","REF_FRAME":"TEME","NORAD_CAT_ID":"51758","BSTAR":"0.00027463000000","TLE_LINE2":"2 51758  53.2189 345.0688 0002566  29.7085 330.4052 15.08834219 42048","EPHEMERIS_TYPE":"0","MEAN_MOTION":"15.08834219","DECAY_DATE":null,"TIME_SYSTEM":"UTC","COUNTRY_CODE":"US","OBJECT_TYPE":"PAYLOAD"},{"MEAN_ANOMALY":"311.7077","TLE_LINE1":"1 51759U 22016AX  22318.39077761 -.00003905  00000-0 -22736-3 0  9996","EPOCH":"2022-11-14T09:22:43.185504","MEAN_MOTION_DDOT":"0.0000000000000","RCS_SIZE":"LARGE","MEAN_ELEMENT_THEORY":"SGP4","LAUNCH_DATE":"2022-02-21","RA_OF_ASC_NODE":"346.8652","SITE":"AFETR","SEMIMAJOR_AXIS":"6917.881","OBJECT_ID":"2022-016AX","FILE":"3654975","INCLINATION":"53.2180","OBJECT_NAME":"STARLINK-3456","ELEMENT_SET_NO":"999","ECCENTRICITY":"0.00022900","CENTER_NAME":"EARTH","REV_AT_EPOCH":"4084","ARG_OF_PERICENTER":"48.4111","GP_ID":"217741081","PERIOD":"95.438","PERIAPSIS":"538.162","APOAPSIS":"541.331","MEAN_MOTION_DOT":"-0.00003905","CLASSIFICATION_TYPE":"U","REF_FRAME":"TEME","NORAD_CAT_ID":"51759","BSTAR":"-0.00022736000000","TLE_LINE2":"2 51759  53.2180 346.8652 0002290  48.4111 311.7077 15.08839694 40849","EPHEMERIS_TYPE":"0","MEAN_MOTION":"15.08839694","DECAY_DATE":null,"TIME_SYSTEM":"UTC","COUNTRY_CODE":"US","OBJECT_TYPE":"PAYLOAD"},{"INCLINATION":"53.2176","FILE":"3656253","OBJECT_NAME":"STARLINK-3622","REV_AT_EPOCH":"4126","ECCENTRICITY":"0.00023750","ELEMENT_SET_NO":"999","CENTER_NAME":"EARTH","ARG_OF_PERICENTER":"37.1063","GP_ID":"217794020","PERIOD":"95.437","PERIAPSIS":"538.081","MEAN_ANOMALY":"323.0093","EPOCH":"2022-11-14T21:14:07.592640","TLE_LINE1":"1 51768U 22017A   22318.88481010  .00009199  00000-0  59517-3 0  9993","MEAN_MOTION_DDOT":"0.0000000000000","MEAN_ELEMENT_THEORY":"SGP4","RCS_SIZE":"LARGE","LAUNCH_DATE":"2022-02-25","SITE":"AFWTR","RA_OF_ASC_NODE":"14.6332","SEMIMAJOR_AXIS":"6917.859","OBJECT_ID":"2022-017A","TLE_LINE2":"2 51768  53.2176  14.6332 0002375  37.1063 323.0093 15.08847122 41260","EPHEMERIS_TYPE":"0","MEAN_MOTION":"15.08847122","TIME_SYSTEM":"UTC","DECAY_DATE":null,"OBJECT_TYPE":"PAYLOAD","COUNTRY_CODE":"US","APOAPSIS":"541.367","MEAN_MOTION_DOT":"0.00009199","CLASSIFICATION_TYPE":"U","REF_FRAME":"TEME","NORAD_CAT_ID":"51768","BSTAR":"0.00059517000000"},{"RA_OF_ASC_NODE":"14.6735","SITE":"AFWTR","LAUNCH_DATE":"2022-02-25","SEMIMAJOR_AXIS":"6917.905","OBJECT_ID":"2022-017B","TLE_LINE1":"1 51769U 22017B   22318.87745173  .00008169  00000-0  53089-3 0  9990","EPOCH":"2022-11-14T21:03:31.829472","MEAN_ANOMALY":"324.2838","RCS_SIZE":"LARGE","MEAN_ELEMENT_THEORY":"SGP4","MEAN_MOTION_DDOT":"0.0000000000000","PERIOD":"95.438","GP_ID":"217794035","PERIAPSIS":"538.136","OBJECT_NAME":"STARLINK-3621","INCLINATION":"53.2185","FILE":"3656254","ARG_OF_PERICENTER":"35.8312","ELEMENT_SET_NO":"999","ECCENTRICITY":"0.00023620","CENTER_NAME":"EARTH","REV_AT_EPOCH":"4126","NORAD_CAT_ID":"51769","REF_FRAME":"TEME","CLASSIFICATION_TYPE":"U","BSTAR":"0.00053089000000","APOAPSIS":"541.404","MEAN_MOTION_DOT":"0.00008169","MEAN_MOTION":"15.08832074","COUNTRY_CODE":"US","OBJECT_TYPE":"PAYLOAD","TIME_SYSTEM":"UTC","DECAY_DATE":null,"TLE_LINE2":"2 51769  53.2185  14.6735 0002362  35.8312 324.2838 15.08832074 41266","EPHEMERIS_TYPE":"0"},{"MEAN_ANOMALY":"319.2546","EPOCH":"2022-11-14T21:08:49.477344","TLE_LINE1":"1 51770U 22017C   22318.88112821  .00001919  00000-0  13867-3 0  9997","MEAN_MOTION_DDOT":"0.0000000000000","MEAN_ELEMENT_THEORY":"SGP4","RCS_SIZE":"LARGE","LAUNCH_DATE":"2022-02-25","RA_OF_ASC_NODE":"14.6475","SITE":"AFWTR","OBJECT_ID":"2022-017C","SEMIMAJOR_AXIS":"6917.909","INCLINATION":"53.2179","FILE":"3656254","OBJECT_NAME":"STARLINK-3612","REV_AT_EPOCH":"4126","ELEMENT_SET_NO":"999","ECCENTRICITY":"0.00022110","CENTER_NAME":"EARTH","ARG_OF_PERICENTER":"40.8611","GP_ID":"217794536","PERIOD":"95.438","PERIAPSIS":"538.244","APOAPSIS":"541.303","MEAN_MOTION_DOT":"0.00001919","CLASSIFICATION_TYPE":"U","REF_FRAME":"TEME","NORAD_CAT_ID":"51770","BSTAR":"0.00013867000000","TLE_LINE2":"2 51770  53.2179  14.6475 0002211  40.8611 319.2546 15.08830748 41269","EPHEMERIS_TYPE":"0","MEAN_MOTION":"15.08830748","DECAY_DATE":null,"TIME_SYSTEM":"UTC","OBJECT_TYPE":"PAYLOAD","COUNTRY_CODE":"US"},{"PERIAPSIS":"538.094","GP_ID":"217785749","PERIOD":"95.437","ECCENTRICITY":"0.00023590","ELEMENT_SET_NO":"999","CENTER_NAME":"EARTH","REV_AT_EPOCH":"3978","ARG_OF_PERICENTER":"36.8967","INCLINATION":"53.2184","FILE":"3656014","OBJECT_NAME":"STARLINK-3614","SEMIMAJOR_AXIS":"6917.861","OBJECT_ID":"2022-017D","LAUNCH_DATE":"2022-02-25","SITE":"AFWTR","RA_OF_ASC_NODE":"15.5760","MEAN_MOTION_DDOT":"0.0000000000000","RCS_SIZE":"LARGE","MEAN_ELEMENT_THEORY":"SGP4","MEAN_ANOMALY":"323.2187","TLE_LINE1":"1 51771U 22017D   22318.67600139  .00015666  00000-0  10000-2 0  9998","EPOCH":"2022-11-14T16:13:26.520096","TIME_SYSTEM":"UTC","DECAY_DATE":null,"COUNTRY_CODE":"US","OBJECT_TYPE":"PAYLOAD","MEAN_MOTION":"15.08846468","EPHEMERIS_TYPE":"0","TLE_LINE2":"2 51771  53.2184  15.5760 0002359  36.8967 323.2187 15.08846468 39781","BSTAR":"0.00100000000000","NORAD_CAT_ID":"51771","REF_FRAME":"TEME","CLASSIFICATION_TYPE":"U","MEAN_MOTION_DOT":"0.00015666","APOAPSIS":"541.358"},{"LAUNCH_DATE":"2022-02-25","SITE":"AFWTR","RA_OF_ASC_NODE":"15.9072","SEMIMAJOR_AXIS":"6917.883","OBJECT_ID":"2022-017E","MEAN_ANOMALY":"315.3707","EPOCH":"2022-11-14T14:26:05.170272","TLE_LINE1":"1 51772U 22017E   22318.60144873  .00012122  00000-0  77841-3 0  9991","MEAN_MOTION_DDOT":"0.0000000000000","MEAN_ELEMENT_THEORY":"SGP4","RCS_SIZE":"LARGE","GP_ID":"217787001","PERIOD":"95.438","PERIAPSIS":"538.530","FILE":"3656014","INCLINATION":"53.2184","OBJECT_NAME":"STARLINK-3623","REV_AT_EPOCH":"3976","ELEMENT_SET_NO":"999","ECCENTRICITY":"0.00017600","CENTER_NAME":"EARTH","ARG_OF_PERICENTER":"44.7427","NORAD_CAT_ID":"51772","CLASSIFICATION_TYPE":"U","REF_FRAME":"TEME","BSTAR":"0.00077841000000","APOAPSIS":"540.965","MEAN_MOTION_DOT":"0.00012122","MEAN_MOTION":"15.08839270","DECAY_DATE":null,"TIME_SYSTEM":"UTC","OBJECT_TYPE":"PAYLOAD","COUNTRY_CODE":"US","TLE_LINE2":"2 51772  53.2184  15.9072 0001760  44.7427 315.3707 15.08839270 39767","EPHEMERIS_TYPE":"0"},{"MEAN_ELEMENT_THEORY":"SGP4","RCS_SIZE":"LARGE","MEAN_MOTION_DDOT":"0.0000000000000","EPOCH":"2022-11-14T16:12:04.786560","TLE_LINE1":"1 51773U 22017F   22318.67505540  .00001001  00000-0  80996-4 0  9991","MEAN_ANOMALY":"322.1169","SEMIMAJOR_AXIS":"6917.894","OBJECT_ID":"2022-017F","SITE":"AFWTR","RA_OF_ASC_NODE":"15.5684","LAUNCH_DATE":"2022-02-25","ARG_OF_PERICENTER":"37.9978","REV_AT_EPOCH":"3978","ELEMENT_SET_NO":"999","ECCENTRICITY":"0.00022000","CENTER_NAME":"EARTH","OBJECT_NAME":"STARLINK-3624","FILE":"3656014","INCLINATION":"53.2183","PERIAPSIS":"538.237","PERIOD":"95.438","GP_ID":"217786732","MEAN_MOTION_DOT":"0.00001001","APOAPSIS":"541.281","BSTAR":"0.00008099600000","REF_FRAME":"TEME","CLASSIFICATION_TYPE":"U","NORAD_CAT_ID":"51773","EPHEMERIS_TYPE":"0","TLE_LINE2":"2 51773  53.2183  15.5684 0002200  37.9978 322.1169 15.08835547 39780","OBJECT_TYPE":"PAYLOAD","COUNTRY_CODE":"US","DECAY_DATE":null,"TIME_SYSTEM":"UTC","MEAN_MOTION":"15.08835547"},{"DECAY_DATE":null,"TIME_SYSTEM":"UTC","OBJECT_TYPE":"PAYLOAD","COUNTRY_CODE":"US","MEAN_MOTION":"15.08848540","EPHEMERIS_TYPE":"0","TLE_LINE2":"2 51774  53.2178  14.7466 0002904  31.0016 329.1147 15.08848540 41270","BSTAR":"0.00019346000000","NORAD_CAT_ID":"51774","REF_FRAME":"TEME","CLASSIFICATION_TYPE":"U","MEAN_MOTION_DOT":"0.00002793","APOAPSIS":"541.728","PERIAPSIS":"537.710","GP_ID":"217794053","PERIOD":"95.437","REV_AT_EPOCH":"4127","ELEMENT_SET_NO":"999","ECCENTRICITY":"0.00029040","CENTER_NAME":"EARTH","ARG_OF_PERICENTER":"31.0016","FILE":"3656255","INCLINATION":"53.2178","OBJECT_NAME":"STARLINK-3629","SEMIMAJOR_AXIS":"6917.854","OBJECT_ID":"2022-017G","LAUNCH_DATE":"2022-02-25","RA_OF_ASC_NODE":"14.7466","SITE":"AFWTR","MEAN_MOTION_DDOT":"0.0000000000000","MEAN_ELEMENT_THEORY":"SGP4","RCS_SIZE":"LARGE","MEAN_ANOMALY":"329.1147","EPOCH":"2022-11-14T20:37:02.446176","TLE_LINE1":"1 51774U 22017G   22318.85905609  .00002793  00000-0  19346-3 0  9991"},{"GP_ID":"217794049","PERIOD":"95.437","PERIAPSIS":"537.904","FILE":"3656255","INCLINATION":"53.2190","OBJECT_NAME":"STARLINK-3620","REV_AT_EPOCH":"4121","ELEMENT_SET_NO":"999","ECCENTRICITY":"0.00026090","CENTER_NAME":"EARTH","ARG_OF_PERICENTER":"25.1325","LAUNCH_DATE":"2022-02-25","SITE":"AFWTR","RA_OF_ASC_NODE":"16.1951","OBJECT_ID":"2022-017H","SEMIMAJOR_AXIS":"6917.844","MEAN_ANOMALY":"334.9793","EPOCH":"2022-11-14T12:55:59.297664","TLE_LINE1":"1 51775U 22017H   22318.53888076 -.00004179  00000-0 -24447-3 0  9995","MEAN_MOTION_DDOT":"0.0000000000000","MEAN_ELEMENT_THEORY":"SGP4","RCS_SIZE":"LARGE","MEAN_MOTION":"15.08851884","DECAY_DATE":null,"TIME_SYSTEM":"UTC","OBJECT_TYPE":"PAYLOAD","COUNTRY_CODE":"US","TLE_LINE2":"2 51775  53.2190  16.1951 0002609  25.1325 334.9793 15.08851884 41219","EPHEMERIS_TYPE":"0","REF_FRAME":"TEME","NORAD_CAT_ID":"51775","CLASSIFICATION_TYPE":"U","BSTAR":"-0.00024447000000","APOAPSIS":"541.514","MEAN_MOTION_DOT":"-0.00004179"}];
